{"type": "FeatureCollection", "features": [{"type": "Feature", "properties": {"norad_id": 28054, "name": "DMSP 5D-3 F16 (USA 172)", "group": "weather", "lat": 49.11133469230444, "lon": -152.73095692556308, "alt_km": 843.7097114400676, "timestamp": "2025-12-25T03:55:55.948462+00:00", "meta": {"OBJECT_NAME": "DMSP 5D-3 F16 (USA 172)", "OBJECT_ID": "2003-048A", "EPOCH": "2025-12-24T19:38:57.122016", "MEAN_MOTION": 14.14428363, "ECCENTRICITY": 0.0006246, "INCLINATION": 99.0038, "RA_OF_ASC_NODE": 16.3702, "ARG_OF_PERICENTER": 282.0888, "MEAN_ANOMALY": 251.5495, "EPHEMERIS_TYPE": 0, "CLASSIFICATION_TYPE": "U", "NORAD_CAT_ID": 28054, "ELEMENT_SET_NO": 999, "REV_AT_EPOCH": 14483, "BSTAR": 7.9142e-05, "MEAN_MOTION_DOT": 1.06e-06, "MEAN_MOTION_DDOT": 0}, "tle": {"line1": "1 28054U 03048A   25358.81871669  .00000106  00000+0  79142-4 0  9996", "line2": "2 28054  99.0038  16.3702 0006246 282.0888 251.5495 14.14428363144830"}}, "geometry": {"type": "Point", "coordinates": [-152.73095692556308, 49.11133469230444]}}, {"type": "Feature", "properties": {"norad_id": 28912, "name": "METEOSAT-9 (MSG-2)", "group": "weather", "lat": 5.583898431676846, "lon": -162.45368438298038, "alt_km": 36019.80569261059, "timestamp": "2025-12-25T03:55:55.948511+00:00", "meta": {"OBJECT_NAME": "METEOSAT-9 (MSG-2)", "OBJECT_ID": "2005-049B", "EPOCH": "2025-12-24T18:27:10.310112", "MEAN_MOTION": 1.00268275, "ECCENTRICITY": 0.0071969, "INCLINATION": 8.9553, "RA_OF_ASC_NODE": 55.846, "ARG_OF_PERICENTER": 282.2974, "MEAN_ANOMALY": 77.0088, "EPHEMERIS_TYPE": 0, "CLASSIFICATION_TYPE": "U", "NORAD_CAT_ID": 28912, "ELEMENT_SET_NO": 999, "REV_AT_EPOCH": 524, "BSTAR": 0, "MEAN_MOTION_DOT": 1.45e-06, "MEAN_MOTION_DDOT": 0}, "tle": {"line1": "1 28912U 05049B   25358.76886933  .00000145  00000+0  00000+0 0  9991", "line2": "2 28912   8.9553  55.8460 0071969 282.2974  77.0088  1.00268275  5240"}}, "geometry": {"type": "Point", "coordinates": [-162.45368438298038, 5.583898431676846]}}, {"type": "Feature", "properties": {"norad_id": 29522, "name": "DMSP 5D-3 F17 (USA 191)", "group": "weather", "lat": 80.99532178958952, "lon": -99.61846030315597, "alt_km": 835.8232879721663, "timestamp": "2025-12-25T03:55:55.948529+00:00", "meta": {"OBJECT_NAME": "DMSP 5D-3 F17 (USA 191)", "OBJECT_ID": "2006-050A", "EPOCH": "2025-12-24T20:42:32.730048", "MEAN_MOTION": 14.14924542, "ECCENTRICITY": 0.0009931, "INCLINATION": 98.7392, "RA_OF_ASC_NODE": 3.9995, "ARG_OF_PERICENTER": 188.7309, "MEAN_ANOMALY": 171.3693, "EPHEMERIS_TYPE": 0, "CLASSIFICATION_TYPE": "U", "NORAD_CAT_ID": 29522, "ELEMENT_SET_NO": 999, "REV_AT_EPOCH": 98776, "BSTAR": 9.5284e-05, "MEAN_MOTION_DOT": 1.41e-06, "MEAN_MOTION_DDOT": 0}, "tle": {"line1": "1 29522U 06050A   25358.86287882  .00000141  00000+0  95284-4 0  9990", "line2": "2 29522  98.7392   3.9995 0009931 188.7309 171.3693 14.14924542987766"}}, "geometry": {"type": "Point", "coordinates": [-99.61846030315597, 80.99532178958952]}}, {"type": "Feature", "properties": {"norad_id": 32958, "name": "FENGYUN 3A", "group": "weather", "lat": 11.266657093333647, "lon": -63.31225577050089, "alt_km": 829.384078035634, "timestamp": "2025-12-25T03:55:55.948543+00:00", "meta": {"OBJECT_NAME": "FENGYUN 3A", "OBJECT_ID": "2008-026A", "EPOCH": "2025-12-24T19:25:13.140768", "MEAN_MOTION": 14.19518258, "ECCENTRICITY": 0.0007611, "INCLINATION": 98.6714, "RA_OF_ASC_NODE": 298.0827, "ARG_OF_PERICENTER": 271.2931, "MEAN_ANOMALY": 88.7373, "EPHEMERIS_TYPE": 0, "CLASSIFICATION_TYPE": "U", "NORAD_CAT_ID": 32958, "ELEMENT_SET_NO": 999, "REV_AT_EPOCH": 91066, "BSTAR": 7.9048e-05, "MEAN_MOTION_DOT": 1.23e-06, "MEAN_MOTION_DDOT": 0}, "tle": {"line1": "1 32958U 08026A   25358.80917987  .00000123  00000+0  79048-4 0  9992", "line2": "2 32958  98.6714 298.0827 0007611 271.2931  88.7373 14.19518258910662"}}, "geometry": {"type": "Point", "coordinates": [-63.31225577050089, 11.266657093333647]}}, {"type": "Feature", "properties": {"norad_id": 35491, "name": "GOES 14", "group": "weather", "lat": -0.9372225453257068, "lon": 35.335032610351554, "alt_km": 35836.619176008026, "timestamp": "2025-12-25T03:55:55.948556+00:00", "meta": {"OBJECT_NAME": "GOES 14", "OBJECT_ID": "2009-033A", "EPOCH": "2025-12-24T13:17:44.546784", "MEAN_MOTION": 1.00097021, "ECCENTRICITY": 6.57e-05, "INCLINATION": 1.2326, "RA_OF_ASC_NODE": 85.2846, "ARG_OF_PERICENTER": 190.4706, "MEAN_ANOMALY": 259.8071, "EPHEMERIS_TYPE": 0, "CLASSIFICATION_TYPE": "U", "NORAD_CAT_ID": 35491, "ELEMENT_SET_NO": 999, "REV_AT_EPOCH": 484, "BSTAR": 0, "MEAN_MOTION_DOT": 3.4e-07, "MEAN_MOTION_DDOT": 0}, "tle": {"line1": "1 35491U 09033A   25358.55398781  .00000034  00000+0  00000+0 0  9991", "line2": "2 35491   1.2326  85.2846 0000657 190.4706 259.8071  1.00097021  4844"}}, "geometry": {"type": "Point", "coordinates": [35.335032610351554, -0.9372225453257068]}}, {"type": "Feature", "properties": {"norad_id": 35951, "name": "DMSP 5D-3 F18 (USA 210)", "group": "weather", "lat": -46.3205730966278, "lon": -15.068778751364134, "alt_km": 847.8523318993457, "timestamp": "2025-12-25T03:55:55.948569+00:00", "meta": {"OBJECT_NAME": "DMSP 5D-3 F18 (USA 210)", "OBJECT_ID": "2009-057A", "EPOCH": "2025-12-24T19:40:02.220096", "MEAN_MOTION": 14.14777005, "ECCENTRICITY": 0.0011712, "INCLINATION": 98.8849, "RA_OF_ASC_NODE": 335.1606, "ARG_OF_PERICENTER": 30.8192, "MEAN_ANOMALY": 329.3666, "EPHEMERIS_TYPE": 0, "CLASSIFICATION_TYPE": "U", "NORAD_CAT_ID": 35951, "ELEMENT_SET_NO": 999, "REV_AT_EPOCH": 83493, "BSTAR": 0.00016021, "MEAN_MOTION_DOT": 2.64e-06, "MEAN_MOTION_DDOT": 0}, "tle": {"line1": "1 35951U 09057A   25358.81947014  .00000264  00000+0  16021-3 0  9995", "line2": "2 35951  98.8849 335.1606 0011712  30.8192 329.3666 14.14777005834938"}}, "geometry": {"type": "Point", "coordinates": [-15.068778751364134, -46.3205730966278]}}, {"type": "Feature", "properties": {"norad_id": 36411, "name": "EWS-G2 (GOES 15)", "group": "weather", "lat": 0.6551115328270806, "lon": -145.78908720804955, "alt_km": 35771.34121485446, "timestamp": "2025-12-25T03:55:55.948583+00:00", "meta": {"OBJECT_NAME": "EWS-G2 (GOES 15)", "OBJECT_ID": "2010-008A", "EPOCH": "2025-12-24T20:44:19.389120", "MEAN_MOTION": 1.00271019, "ECCENTRICITY": 0.0005568, "INCLINATION": 0.8416, "RA_OF_ASC_NODE": 86.0745, "ARG_OF_PERICENTER": 179.0047, "MEAN_ANOMALY": 200.9869, "EPHEMERIS_TYPE": 0, "CLASSIFICATION_TYPE": "U", "NORAD_CAT_ID": 36411, "ELEMENT_SET_NO": 999, "REV_AT_EPOCH": 5789, "BSTAR": 0, "MEAN_MOTION_DOT": 5.9e-07, "MEAN_MOTION_DDOT": 0}, "tle": {"line1": "1 36411U 10008A   25358.86411330  .00000059  00000+0  00000+0 0  9995", "line2": "2 36411   0.8416  86.0745 0005568 179.0047 200.9869  1.00271019 57892"}}, "geometry": {"type": "Point", "coordinates": [-145.78908720804955, 0.6551115328270806]}}, {"type": "Feature", "properties": {"norad_id": 36744, "name": "COMS 1", "group": "weather", "lat": -1.740708467551162, "lon": -78.9824370444482, "alt_km": 35783.24923517452, "timestamp": "2025-12-25T03:55:55.948596+00:00", "meta": {"OBJECT_NAME": "COMS 1", "OBJECT_ID": "2010-032A", "EPOCH": "2025-12-24T17:07:55.400160", "MEAN_MOTION": 1.00270285, "ECCENTRICITY": 8.7e-05, "INCLINATION": 4.3672, "RA_OF_ASC_NODE": 77.8633, "ARG_OF_PERICENTER": 218.4847, "MEAN_ANOMALY": 182.2916, "EPHEMERIS_TYPE": 0, "CLASSIFICATION_TYPE": "U", "NORAD_CAT_ID": 36744, "ELEMENT_SET_NO": 999, "REV_AT_EPOCH": 4934, "BSTAR": 0, "MEAN_MOTION_DOT": -3.25e-06, "MEAN_MOTION_DDOT": 0}, "tle": {"line1": "1 36744U 10032A   25358.71383565 -.00000325  00000+0  00000+0 0  9990", "line2": "2 36744   4.3672  77.8633 0000870 218.4847 182.2916  1.00270285 49345"}}, "geometry": {"type": "Point", "coordinates": [-78.9824370444482, -1.740708467551162]}}, {"type": "Feature", "properties": {"norad_id": 37214, "name": "FENGYUN 3B", "group": "weather", "lat": -77.68246086373094, "lon": 85.68510705463993, "alt_km": 839.048558023932, "timestamp": "2025-12-25T03:55:55.948609+00:00", "meta": {"OBJECT_NAME": "FENGYUN 3B", "OBJECT_ID": "2010-059A", "EPOCH": "2025-12-24T20:38:50.066016", "MEAN_MOTION": 14.14792832, "ECCENTRICITY": 0.0021521, "INCLINATION": 98.9886, "RA_OF_ASC_NODE": 38.9211, "ARG_OF_PERICENTER": 322.9269, "MEAN_ANOMALY": 210.5643, "EPHEMERIS_TYPE": 0, "CLASSIFICATION_TYPE": "U", "NORAD_CAT_ID": 37214, "ELEMENT_SET_NO": 999, "REV_AT_EPOCH": 78277, "BSTAR": 0.00012389, "MEAN_MOTION_DOT": 1.94e-06, "MEAN_MOTION_DDOT": 0}, "tle": {"line1": "1 37214U 10059A   25358.86030169  .00000194  00000+0  12389-3 0  9997", "line2": "2 37214  98.9886  38.9211 0021521 322.9269 210.5643 14.14792832782778"}}, "geometry": {"type": "Point", "coordinates": [85.68510705463993, -77.68246086373094]}}, {"type": "Feature", "properties": {"norad_id": 37849, "name": "SUOMI NPP", "group": "weather", "lat": -29.496513421388745, "lon": -58.59112035957838, "alt_km": 833.884213377517, "timestamp": "2025-12-25T03:55:55.948620+00:00", "meta": {"OBJECT_NAME": "SUOMI NPP", "OBJECT_ID": "2011-061A", "EPOCH": "2025-12-22T15:10:21.732672", "MEAN_MOTION": 14.19516903, "ECCENTRICITY": 0.00024883, "INCLINATION": 98.7787, "RA_OF_ASC_NODE": 293.8852, "ARG_OF_PERICENTER": 103.0781, "MEAN_ANOMALY": 257.0673, "EPHEMERIS_TYPE": 0, "CLASSIFICATION_TYPE": "U", "NORAD_CAT_ID": 37849, "ELEMENT_SET_NO": 999, "REV_AT_EPOCH": 73339, "BSTAR": 6.3406935e-05, "MEAN_MOTION_DOT": 8.9e-07, "MEAN_MOTION_DDOT": 0}, "tle": {"line1": "1 37849U 11061A   25356.63219598  .00000089  00000+0  63407-4 0  9994", "line2": "2 37849  98.7787 293.8852 0002488 103.0781 257.0673 14.19516903733392"}}, "geometry": {"type": "Point", "coordinates": [-58.59112035957838, -29.496513421388745]}}]}